[{"OBJECT_NAME":"STARLINK-5988","OBJECT_ID":"2023-058D","EPOCH":"2026-03-09T22:39:15.603840","MEAN_MOTION":15.01262386,"ECCENTRICITY":0.0002859,"INCLINATION":97.6044,"RA_OF_ASC_NODE":70.3858,"ARG_OF_PERICENTER":67.357,"MEAN_ANOMALY":292.7956,"EPHEMERIS_TYPE":0,"CLASSIFICATION_TYPE":"U","NORAD_CAT_ID":56320,"ELEMENT_SET_NO":999,"REV_AT_EPOCH":15782,"BSTAR":5.4072305e-5,"MEAN_MOTION_DOT":6.36e-6,"MEAN_MOTION_DDOT":0},{"OBJECT_NAME":"FREGAT DEB","OBJECT_ID":"2011-037CA","EPOCH":"2026-03-09T14:50:33.280800","MEAN_MOTION":11.1879263,"ECCENTRICITY":0.1892682,"INCLINATION":51.5488,"RA_OF_ASC_NODE":250.7678,"ARG_OF_PERICENTER":39.8106,"MEAN_ANOMALY":332.7245,"EPHEMERIS_TYPE":0,"CLASSIFICATION_TYPE":"U","NORAD_CAT_ID":45840,"ELEMENT_SET_NO":999,"REV_AT_EPOCH":22544,"BSTAR":0.0057315,"MEAN_MOTION_DOT":0.00017987,"MEAN_MOTION_DDOT":0}]
